{"type": "FeatureCollection", "features": [ {"type": "Feature", "properties": {"norad_id": 66593, "name": "STARLINK-36031", "group": "last-30-days", "lat": -31.878047126341094, "lon": 177.75465331078033, "alt_km": 383.8359006313094, "timestamp": "2025-12-08T03:50:05.784401+00:00", "meta": {"OBJECT_NAME": "STARLINK-36031", "OBJECT_ID": "2025-270F", "EPOCH": "2025-12-07T06:00:04.999968", "MEAN_MOTION": 15.65717206, "ECCENTRICITY": 0.00014639, "INCLINATION": 42.9993, "RA_OF_ASC_NODE": 225.0508, "ARG_OF_PERICENTER": 259.4391, "MEAN_ANOMALY": 322.2368, "EPHEMERIS_TYPE": 0, "CLASSIFICATION_TYPE": "U", "NORAD_CAT_ID": 66593, "ELEMENT_SET_NO": 999, "REV_AT_EPOCH": 351, "BSTAR": -0.021758484, "MEAN_MOTION_DOT": -0.01991586, "MEAN_MOTION_DDOT": 0}, "tle": {"line1": "1 66593U 25270F   25341.25005787 -.01991586  00000+0 -21758-1 0  9998", "line2": "2 66593  42.9993 225.0508 0001463 259.4391 322.2368 15.65717206  3511"}}, "geometry": {"type": "Point", "coordinates": [177.75465331078033, -31.878047126341094]}}, {"type": "Feature", "properties": {"norad_id": 66594, "name": "STARLINK-36032", "group": "last-30-days", "lat": -30.887635984864545, "lon": 179.6792785191987, "alt_km": 383.86604768069265, "timestamp": "2025-12-08T03:50:05.784410+00:00", "meta": {"OBJECT_NAME": "STARLINK-36032", "OBJECT_ID": "2025-270G", "EPOCH": "2025-12-07T06:00:04.999968", "MEAN_MOTION": 15.65715111, "ECCENTRICITY": 0.00014025, "INCLINATION": 42.9992, "RA_OF_ASC_NODE": 225.0459, "ARG_OF_PERICENTER": 258.071, "MEAN_ANOMALY": 325.5232, "EPHEMERIS_TYPE": 0, "CLASSIFICATION_TYPE": "U", "NORAD_CAT_ID": 66594, "ELEMENT_SET_NO": 999, "REV_AT_EPOCH": 325, "BSTAR": -0.021715866, "MEAN_MOTION_DOT": -0.0198796, "MEAN_MOTION_DDOT": 0}, "tle": {"line1": "1 66594U 25270G   25341.25005787 -.01987960  00000+0 -21716-1 0  9994", "line2": "2 66594  42.9992 225.0459 0001402 258.0710 325.5232 15.65715111  3259"}}, "geometry": {"type": "Point", "coordinates": [179.6792785191987, -30.887635984864545]}}, {"type": "Feature", "properties": {"norad_id": 66595, "name": "STARLINK-35711", "group": "last-30-days", "lat": -29.87665490449142, "lon": -178.44992878331334, "alt_km": 383.7249012975708, "timestamp": "2025-12-08T03:50:05.784420+00:00", "meta": {"OBJECT_NAME": "STARLINK-35711", "OBJECT_ID": "2025-270H", "EPOCH": "2025-12-07T06:00:04.999968", "MEAN_MOTION": 15.65717348, "ECCENTRICITY": 0.00014929, "INCLINATION": 42.9991, "RA_OF_ASC_NODE": 225.0407, "ARG_OF_PERICENTER": 261.1096, "MEAN_ANOMALY": 324.4006, "EPHEMERIS_TYPE": 0, "CLASSIFICATION_TYPE": "U", "NORAD_CAT_ID": 66595, "ELEMENT_SET_NO": 999, "REV_AT_EPOCH": 362, "BSTAR": -0.021760645, "MEAN_MOTION_DOT": -0.01991792, "MEAN_MOTION_DDOT": 0}, "tle": {"line1": "1 66595U 25270H   25341.25005787 -.01991792  00000+0 -21761-1 0  9993", "line2": "2 66595  42.9991 225.0407 0001492 261.1096 324.4006 15.65717348  3625"}}, "geometry": {"type": "Point", "coordinates": [-178.44992878331334, -29.87665490449142]}}, {"type": "Feature", "properties": {"norad_id": 66596, "name": "STARLINK-35811", "group": "last-30-days", "lat": -28.832335138764595, "lon": -176.60374095171414, "alt_km": 383.77680118800527, "timestamp": "2025-12-08T03:50:05.784434+00:00", "meta": {"OBJECT_NAME": "STARLINK-35811", "OBJECT_ID": "2025-270J", "EPOCH": "2025-12-07T06:00:04.999968", "MEAN_MOTION": 15.65714731, "ECCENTRICITY": 0.00014226, "INCLINATION": 42.9992, "RA_OF_ASC_NODE": 225.036, "ARG_OF_PERICENTER": 258.8988, "MEAN_ANOMALY": 328.5304, "EPHEMERIS_TYPE": 0, "CLASSIFICATION_TYPE": "U", "NORAD_CAT_ID": 66596, "ELEMENT_SET_NO": 999, "REV_AT_EPOCH": 362, "BSTAR": -0.0217182, "MEAN_MOTION_DOT": -0.01988137, "MEAN_MOTION_DDOT": 0}, "tle": {"line1": "1 66596U 25270J   25341.25005787 -.01988137  00000+0 -21718-1 0  9995", "line2": "2 66596  42.9992 225.0360 0001422 258.8988 328.5304 15.65714731  3620"}}, "geometry": {"type": "Point", "coordinates": [-176.60374095171414, -28.832335138764595]}}, {"type": "Feature", "properties": {"norad_id": 66597, "name": "STARLINK-35820", "group": "last-30-days", "lat": -27.771237092981238, "lon": -174.80832097079912, "alt_km": 383.7135492902471, "timestamp": "2025-12-08T03:50:05.784445+00:00", "meta": {"OBJECT_NAME": "STARLINK-35820", "OBJECT_ID": "2025-270K", "EPOCH": "2025-12-07T06:00:04.999968", "MEAN_MOTION": 15.6571725, "ECCENTRICITY": 0.00014742, "INCLINATION": 42.9992, "RA_OF_ASC_NODE": 225.0311, "ARG_OF_PERICENTER": 259.7617, "MEAN_ANOMALY": 329.5846, "EPHEMERIS_TYPE": 0, "CLASSIFICATION_TYPE": "U", "NORAD_CAT_ID": 66597, "ELEMENT_SET_NO": 999, "REV_AT_EPOCH": 362, "BSTAR": -0.021775473, "MEAN_MOTION_DOT": -0.01992963, "MEAN_MOTION_DDOT": 0}, "tle": {"line1": "1 66597U 25270K   25341.25005787 -.01992963  00000+0 -21775-1 0  9991", "line2": "2 66597  42.9992 225.0311 0001474 259.7617 329.5846 15.65717250  3624"}}, "geometry": {"type": "Point", "coordinates": [-174.80832097079912, -27.771237092981238]}}, {"type": "Feature", "properties": {"norad_id": 66598, "name": "STARLINK-35981", "group": "last-30-days", "lat": -26.68182226638357, "lon": -173.03920549672927, "alt_km": 383.6978431531297, "timestamp": "2025-12-08T03:50:05.784454+00:00", "meta": {"OBJECT_NAME": "STARLINK-35981", "OBJECT_ID": "2025-270L", "EPOCH": "2025-12-07T06:00:04.999968", "MEAN_MOTION": 15.65718702, "ECCENTRICITY": 0.00015038, "INCLINATION": 42.9994, "RA_OF_ASC_NODE": 225.0261, "ARG_OF_PERICENTER": 258.525, "MEAN_ANOMALY": 332.7351, "EPHEMERIS_TYPE": 0, "CLASSIFICATION_TYPE": "U", "NORAD_CAT_ID": 66598, "ELEMENT_SET_NO": 999, "REV_AT_EPOCH": 335, "BSTAR": -0.021776402, "MEAN_MOTION_DOT": -0.01993164, "MEAN_MOTION_DDOT": 0}, "tle": {"line1": "1 66598U 25270L   25341.25005787 -.01993164  00000+0 -21776-1 0  9997", "line2": "2 66598  42.9994 225.0261 0001503 258.5250 332.7351 15.65718702  3354"}}, "geometry": {"type": "Point", "coordinates": [-173.03920549672927, -26.68182226638357]}}, {"type": "Feature", "properties": {"norad_id": 66599, "name": "STARLINK-35930", "group": "last-30-days", "lat": -25.568104468708583, "lon": -171.29929183384832, "alt_km": 383.64213867790386, "timestamp": "2025-12-08T03:50:05.784464+00:00", "meta": {"OBJECT_NAME": "STARLINK-35930", "OBJECT_ID": "2025-270M", "EPOCH": "2025-12-07T06:00:04.999968", "MEAN_MOTION": 15.65717886, "ECCENTRICITY": 0.00014855, "INCLINATION": 42.9993, "RA_OF_ASC_NODE": 225.0221, "ARG_OF_PERICENTER": 258.9289, "MEAN_ANOMALY": 334.2481, "EPHEMERIS_TYPE": 0, "CLASSIFICATION_TYPE": "U", "NORAD_CAT_ID": 66599, "ELEMENT_SET_NO": 999, "REV_AT_EPOCH": 351, "BSTAR": -0.021745346, "MEAN_MOTION_DOT": -0.01990594, "MEAN_MOTION_DDOT": 0}, "tle": {"line1": "1 66599U 25270M   25341.25005787 -.01990594  00000+0 -21745-1 0  9998", "line2": "2 66599  42.9993 225.0221 0001485 258.9289 334.2481 15.65717886  3516"}}, "geometry": {"type": "Point", "coordinates": [-171.29929183384832, -25.568104468708583]}}, {"type": "Feature", "properties": {"norad_id": 66600, "name": "STARLINK-35980", "group": "last-30-days", "lat": -24.43739892760888, "lon": -169.59753911539482, "alt_km": 383.6101124594079, "timestamp": "2025-12-08T03:50:05.784474+00:00", "meta": {"OBJECT_NAME": "STARLINK-35980", "OBJECT_ID": "2025-270N", "EPOCH": "2025-12-07T06:00:04.999968", "MEAN_MOTION": 15.6571674, "ECCENTRICITY": 0.00014885, "INCLINATION": 42.9993, "RA_OF_ASC_NODE": 225.0171, "ARG_OF_PERICENTER": 258.5215, "MEAN_ANOMALY": 336.5739, "EPHEMERIS_TYPE": 0, "CLASSIFICATION_TYPE": "U", "NORAD_CAT_ID": 66600, "ELEMENT_SET_NO": 999, "REV_AT_EPOCH": 341, "BSTAR": -0.021737261, "MEAN_MOTION_DOT": -0.01989864, "MEAN_MOTION_DDOT": 0}, "tle": {"line1": "1 66600U 25270N   25341.25005787 -.01989864  00000+0 -21737-1 0  9990", "line2": "2 66600  42.9993 225.0171 0001488 258.5215 336.5739 15.65716740  3419"}}, "geometry": {"type": "Point", "coordinates": [-169.59753911539482, -24.43739892760888]}}, {"type": "Feature", "properties": {"norad_id": 66601, "name": "STARLINK-35978", "group": "last-30-days", "lat": -23.2877093414479, "lon": -167.92603336295747, "alt_km": 383.5688206113691, "timestamp": "2025-12-08T03:50:05.784484+00:00", "meta": {"OBJECT_NAME": "STARLINK-35978", "OBJECT_ID": "2025-270P", "EPOCH": "2025-12-07T06:00:04.999968", "MEAN_MOTION": 15.65715678, "ECCENTRICITY": 0.00014875, "INCLINATION": 42.9992, "RA_OF_ASC_NODE": 225.0123, "ARG_OF_PERICENTER": 258.3371, "MEAN_ANOMALY": 338.6764, "EPHEMERIS_TYPE": 0, "CLASSIFICATION_TYPE": "U", "NORAD_CAT_ID": 66601, "ELEMENT_SET_NO": 999, "REV_AT_EPOCH": 335, "BSTAR": -0.021727827, "MEAN_MOTION_DOT": -0.01989029, "MEAN_MOTION_DDOT": 0}, "tle": {"line1": "1 66601U 25270P   25341.25005787 -.01989029  00000+0 -21728-1 0  9994", "line2": "2 66601  42.9992 225.0123 0001487 258.3371 338.6764 15.65715678  3359"}}, "geometry": {"type": "Point", "coordinates": [-167.92603336295747, -23.2877093414479]}}, {"type": "Feature", "properties": {"norad_id": 66602, "name": "STARLINK-36050", "group": "last-30-days", "lat": -22.12214195242428, "lon": -166.28609725932228, "alt_km": 383.48267704284626, "timestamp": "2025-12-08T03:50:05.784493+00:00", "meta": {"OBJECT_NAME": "STARLINK-36050", "OBJECT_ID": "2025-270Q", "EPOCH": "2025-12-07T06:00:04.999968", "MEAN_MOTION": 15.65718199, "ECCENTRICITY": 0.00015055, "INCLINATION": 42.9991, "RA_OF_ASC_NODE": 225.0071, "ARG_OF_PERICENTER": 259.4874, "MEAN_ANOMALY": 339.4414, "EPHEMERIS_TYPE": 0, "CLASSIFICATION_TYPE": "U", "NORAD_CAT_ID": 66602, "ELEMENT_SET_NO": 999, "REV_AT_EPOCH": 341, "BSTAR": -0.021756628, "MEAN_MOTION_DOT": -0.01991539, "MEAN_MOTION_DDOT": 0}, "tle": {"line1": "1 66602U 25270Q   25341.25005787 -.01991539  00000+0 -21757-1 0  9996", "line2": "2 66602  42.9991 225.0071 0001505 259.4874 339.4414 15.65718199  3411"}}, "geometry": {"type": "Point", "coordinates": [-166.28609725932228, -22.12214195242428]}}]}